ONEWEB-0341             
1 49207U 21083X   26099.16898120 -.00000068  00000+0 -20546-3 0  9992
2 49207  87.9226 349.1823 0001644  65.1145 295.0158 13.18685507220890
ONEWEB-0342             
1 49208U 21083Y   26098.95765587  .00000027  00000+0  33675-4 0  9990
2 49208  87.9138 288.2580 0001838  88.8849 271.2495 13.20772072227641
ONEWEB-0343             
1 49209U 21083Z   26099.25312260  .00000116  00000+0  26177-3 0  9998
2 49209  87.9234 349.1616 0001941  65.0226 295.1108 13.18686130220956
ONEWEB-0344             
1 49210U 21083AA  26099.17912934  .00000412  00000+0  10925-2 0  9997
2 49210  87.8983 333.9901 0001558  69.5207 290.6089 13.13468552221835
ONEWEB-0345             
1 49211U 21083AB  26099.17065517  .00000341  00000+0  90003-3 0  9991
2 49211  87.8990 333.9626 0001623  71.5509 288.5796 13.13469000221840
ONEWEB-0346             
1 49212U 21083AC  26099.17392813 -.00000241  00000+0 -64476-3 0  9990
2 49212  87.9223 349.1826 0001240  96.6884 263.4389 13.18686201220883
ONEWEB-0348             
1 49213U 21083AD  26098.94817262  .00000074  00000+0  15103-3 0  9990
2 49213  87.9142 288.2630 0001192  92.3116 267.8154 13.20772774227673
ONEWEB-0350             
1 49214U 21083AE  26099.17996681  .00000342  00000+0  90210-3 0  9990
2 49214  87.8998 333.9600 0001483  70.3263 289.8026 13.13472310221872
ONEWEB-0351             
1 49215U 21083AF  26098.94171715  .00000015  00000+0  37657-5 0  9993
2 49215  87.9141 288.2626 0002410  74.7292 285.4108 13.20773692227633
ONEWEB-0352             
1 49216U 21083AG  26098.62725636  .00000160  00000+0  40363-3 0  9993
2 49216  87.8995 334.0846 0002071  75.0518 285.0840 13.13470044221890
ONEWEB-0354             
1 49217U 21083AH  26098.96711017  .00000001  00000+0 -30018-4 0  9991
2 49217  87.9141 288.2566 0001434  86.8183 273.3115 13.20772611227674
ONEWEB-0355             
1 49218U 21083AJ  26099.18941704  .00000253  00000+0  65669-3 0  9992
2 49218  87.8983 333.9812 0001774  74.0384 286.0940 13.13468279221843
ONEWEB-0357             
1 49219U 21083AK  26098.96395348  .00000034  00000+0  50772-4 0  9992
2 49219  87.9139 288.2519 0001825  86.6151 273.5191 13.20772583227672
ONEWEB-0332             
1 49279U 21090A   26099.02757400  .00000150  00000+0  37095-3 0  9996
2 49279  87.8940 303.5143 0001960  90.6203 269.5151 13.14501756218490
ONEWEB-0347             
1 49280U 21090B   26098.95448995  .00000020  00000+0  16408-4 0  9997
2 49280  87.9138 288.2627 0001949  96.9696 263.1659 13.20772703221902
ONEWEB-0349             
1 49281U 21090C   26098.98605943  .00000029  00000+0  39332-4 0  9999
2 49281  87.9140 288.2565 0001727  90.5518 269.5813 13.20772248220695
