[{"OBJECT_NAME":"ONEWEB-0341","OBJECT_ID":"2021-083X","EPOCH":"2026-04-09T04:03:19.975680","MEAN_MOTION":13.18685507,"ECCENTRICITY":0.0001644,"INCLINATION":87.9226,"RA_OF_ASC_NODE":349.1823,"ARG_OF_PERICENTER":65.1145,"MEAN_ANOMALY":295.0158,"EPHEMERIS_TYPE":0,"CLASSIFICATION_TYPE":"U","NORAD_CAT_ID":49207,"ELEMENT_SET_NO":999,"REV_AT_EPOCH":22089,"BSTAR":-0.00020546,"MEAN_MOTION_DOT":-6.8e-07,"MEAN_MOTION_DDOT":0.0},{"OBJECT_NAME":"ONEWEB-0342","OBJECT_ID":"2021-083Y","EPOCH":"2026-04-08T22:59:01.467168","MEAN_MOTION":13.20772072,"ECCENTRICITY":0.0001838,"INCLINATION":87.9138,"RA_OF_ASC_NODE":288.258,"ARG_OF_PERICENTER":88.8849,"MEAN_ANOMALY":271.2495,"EPHEMERIS_TYPE":0,"CLASSIFICATION_TYPE":"U","NORAD_CAT_ID":49208,"ELEMENT_SET_NO":999,"REV_AT_EPOCH":22764,"BSTAR":3.3675e-05,"MEAN_MOTION_DOT":2.7e-07,"MEAN_MOTION_DDOT":0.0},{"OBJECT_NAME":"ONEWEB-0343","OBJECT_ID":"2021-083Z","EPOCH":"2026-04-09T06:04:29.792640","MEAN_MOTION":13.1868613,"ECCENTRICITY":0.0001941,"INCLINATION":87.9234,"RA_OF_ASC_NODE":349.1616,"ARG_OF_PERICENTER":65.0226,"MEAN_ANOMALY":295.1108,"EPHEMERIS_TYPE":0,"CLASSIFICATION_TYPE":"U","NORAD_CAT_ID":49209,"ELEMENT_SET_NO":999,"REV_AT_EPOCH":22095,"BSTAR":0.00026177,"MEAN_MOTION_DOT":1.16e-06,"MEAN_MOTION_DDOT":0.0},{"OBJECT_NAME":"ONEWEB-0344","OBJECT_ID":"2021-083AA","EPOCH":"2026-04-09T04:17:56.774976","MEAN_MOTION":13.13468552,"ECCENTRICITY":0.0001558,"INCLINATION":87.8983,"RA_OF_ASC_NODE":333.9901,"ARG_OF_PERICENTER":69.5207,"MEAN_ANOMALY":290.6089,"EPHEMERIS_TYPE":0,"CLASSIFICATION_TYPE":"U","NORAD_CAT_ID":49210,"ELEMENT_SET_NO":999,"REV_AT_EPOCH":22183,"BSTAR":0.0010925,"MEAN_MOTION_DOT":4.12e-06,"MEAN_MOTION_DDOT":0.0},{"OBJECT_NAME":"ONEWEB-0345","OBJECT_ID":"2021-083AB","EPOCH":"2026-04-09T04:05:44.606688","MEAN_MOTION":13.13469,"ECCENTRICITY":0.0001623,"INCLINATION":87.899,"RA_OF_ASC_NODE":333.9626,"ARG_OF_PERICENTER":71.5509,"MEAN_ANOMALY":288.5796,"EPHEMERIS_TYPE":0,"CLASSIFICATION_TYPE":"U","NORAD_CAT_ID":49211,"ELEMENT_SET_NO":999,"REV_AT_EPOCH":22184,"BSTAR":0.00090003,"MEAN_MOTION_DOT":3.41e-06,"MEAN_MOTION_DDOT":0.0},{"OBJECT_NAME":"ONEWEB-0346","OBJECT_ID":"2021-083AC","EPOCH":"2026-04-09T04:10:27.390432","MEAN_MOTION":13.18686201,"ECCENTRICITY":0.000124,"INCLINATION":87.9223,"RA_OF_ASC_NODE":349.1826,"ARG_OF_PERICENTER":96.6884,"MEAN_ANOMALY":263.4389,"EPHEMERIS_TYPE":0,"CLASSIFICATION_TYPE":"U","NORAD_CAT_ID":49212,"ELEMENT_SET_NO":999,"REV_AT_EPOCH":22088,"BSTAR":-0.00064476,"MEAN_MOTION_DOT":-2.41e-06,"MEAN_MOTION_DDOT":0.0},{"OBJECT_NAME":"ONEWEB-0348","OBJECT_ID":"2021-083AD","EPOCH":"2026-04-08T22:45:22.114368","MEAN_MOTION":13.20772774,"ECCENTRICITY":0.0001192,"INCLINATION":87.9142,"RA_OF_ASC_NODE":288.263,"ARG_OF_PERICENTER":92.3116,"MEAN_ANOMALY":267.8154,"EPHEMERIS_TYPE":0,"CLASSIFICATION_TYPE":"U","NORAD_CAT_ID":49213,"ELEMENT_SET_NO":999,"REV_AT_EPOCH":22767,"BSTAR":0.00015103,"MEAN_MOTION_DOT":7.4e-07,"MEAN_MOTION_DDOT":0.0},{"OBJECT_NAME":"ONEWEB-0350","OBJECT_ID":"2021-083AE","EPOCH":"2026-04-09T04:19:09.132384","MEAN_MOTION":13.1347231,"ECCENTRICITY":0.0001483,"INCLINATION":87.8998,"RA_OF_ASC_NODE":333.96,"ARG_OF_PERICENTER":70.3263,"MEAN_ANOMALY":289.8026,"EPHEMERIS_TYPE":0,"CLASSIFICATION_TYPE":"U","NORAD_CAT_ID":49214,"ELEMENT_SET_NO":999,"REV_AT_EPOCH":22187,"BSTAR":0.0009021000000000001,"MEAN_MOTION_DOT":3.42e-06,"MEAN_MOTION_DDOT":0.0},{"OBJECT_NAME":"ONEWEB-0351","OBJECT_ID":"2021-083AF","EPOCH":"2026-04-08T22:36:04.361760","MEAN_MOTION":13.20773692,"ECCENTRICITY":0.000241,"INCLINATION":87.9141,"RA_OF_ASC_NODE":288.2626,"ARG_OF_PERICENTER":74.7292,"MEAN_ANOMALY":285.4108,"EPHEMERIS_TYPE":0,"CLASSIFICATION_TYPE":"U","NORAD_CAT_ID":49215,"ELEMENT_SET_NO":999,"REV_AT_EPOCH":22763,"BSTAR":3.7657000000000006e-06,"MEAN_MOTION_DOT":1.5e-07,"MEAN_MOTION_DDOT":0.0},{"OBJECT_NAME":"ONEWEB-0352","OBJECT_ID":"2021-083AG","EPOCH":"2026-04-08T15:03:14.949504","MEAN_MOTION":13.13470044,"ECCENTRICITY":0.0002071,"INCLINATION":87.8995,"RA_OF_ASC_NODE":334.0846,"ARG_OF_PERICENTER":75.0518,"MEAN_ANOMALY":285.084,"EPHEMERIS_TYPE":0,"CLASSIFICATION_TYPE":"U","NORAD_CAT_ID":49216,"ELEMENT_SET_NO":999,"REV_AT_EPOCH":22189,"BSTAR":0.00040363,"MEAN_MOTION_DOT":1.6e-06,"MEAN_MOTION_DDOT":0.0},{"OBJECT_NAME":"ONEWEB-0354","OBJECT_ID":"2021-083AH","EPOCH":"2026-04-08T23:12:38.318688","MEAN_MOTION":13.20772611,"ECCENTRICITY":0.0001434,"INCLINATION":87.9141,"RA_OF_ASC_NODE":288.2566,"ARG_OF_PERICENTER":86.8183,"MEAN_ANOMALY":273.3115,"EPHEMERIS_TYPE":0,"CLASSIFICATION_TYPE":"U","NORAD_CAT_ID":49217,"ELEMENT_SET_NO":999,"REV_AT_EPOCH":22767,"BSTAR":-3.0018000000000003e-05,"MEAN_MOTION_DOT":1e-08,"MEAN_MOTION_DDOT":0.0},{"OBJECT_NAME":"ONEWEB-0355","OBJECT_ID":"2021-083AJ","EPOCH":"2026-04-09T04:32:45.632256","MEAN_MOTION":13.13468279,"ECCENTRICITY":0.0001774,"INCLINATION":87.8983,"RA_OF_ASC_NODE":333.9812,"ARG_OF_PERICENTER":74.0384,"MEAN_ANOMALY":286.094,"EPHEMERIS_TYPE":0,"CLASSIFICATION_TYPE":"U","NORAD_CAT_ID":49218,"ELEMENT_SET_NO":999,"REV_AT_EPOCH":22184,"BSTAR":0.00065669,"MEAN_MOTION_DOT":2.53e-06,"MEAN_MOTION_DDOT":0.0},{"OBJECT_NAME":"ONEWEB-0357","OBJECT_ID":"2021-083AK","EPOCH":"2026-04-08T23:08:05.580672","MEAN_MOTION":13.20772583,"ECCENTRICITY":0.0001825,"INCLINATION":87.9139,"RA_OF_ASC_NODE":288.2519,"ARG_OF_PERICENTER":86.6151,"MEAN_ANOMALY":273.5191,"EPHEMERIS_TYPE":0,"CLASSIFICATION_TYPE":"U","NORAD_CAT_ID":49219,"ELEMENT_SET_NO":999,"REV_AT_EPOCH":22767,"BSTAR":5.0771999999999994e-05,"MEAN_MOTION_DOT":3.4e-07,"MEAN_MOTION_DDOT":0.0},{"OBJECT_NAME":"ONEWEB-0332","OBJECT_ID":"2021-090A","EPOCH":"2026-04-09T00:39:42.393600","MEAN_MOTION":13.14501756,"ECCENTRICITY":0.000196,"INCLINATION":87.894,"RA_OF_ASC_NODE":303.5143,"ARG_OF_PERICENTER":90.6203,"MEAN_ANOMALY":269.5151,"EPHEMERIS_TYPE":0,"CLASSIFICATION_TYPE":"U","NORAD_CAT_ID":49279,"ELEMENT_SET_NO":999,"REV_AT_EPOCH":21849,"BSTAR":0.00037095,"MEAN_MOTION_DOT":1.5e-06,"MEAN_MOTION_DDOT":0.0},{"OBJECT_NAME":"ONEWEB-0347","OBJECT_ID":"2021-090B","EPOCH":"2026-04-08T22:54:27.931680","MEAN_MOTION":13.20772703,"ECCENTRICITY":0.0001949,"INCLINATION":87.9138,"RA_OF_ASC_NODE":288.2627,"ARG_OF_PERICENTER":96.9696,"MEAN_ANOMALY":263.1659,"EPHEMERIS_TYPE":0,"CLASSIFICATION_TYPE":"U","NORAD_CAT_ID":49280,"ELEMENT_SET_NO":999,"REV_AT_EPOCH":22190,"BSTAR":1.6408000000000003e-05,"MEAN_MOTION_DOT":2e-07,"MEAN_MOTION_DDOT":0.0},{"OBJECT_NAME":"ONEWEB-0349","OBJECT_ID":"2021-090C","EPOCH":"2026-04-08T23:39:55.534752","MEAN_MOTION":13.20772248,"ECCENTRICITY":0.0001727,"INCLINATION":87.914,"RA_OF_ASC_NODE":288.2565,"ARG_OF_PERICENTER":90.5518,"MEAN_ANOMALY":269.5813,"EPHEMERIS_TYPE":0,"CLASSIFICATION_TYPE":"U","NORAD_CAT_ID":49281,"ELEMENT_SET_NO":999,"REV_AT_EPOCH":22069,"BSTAR":3.9332e-05,"MEAN_MOTION_DOT":2.9e-07,"MEAN_MOTION_DDOT":0.0}]